{"type": "FeatureCollection", "features": [ {"type": "Feature", "properties": {"norad_id": 40697, "name": "SENTINEL-2A", "group": "resource", "lat": 79.74763690798808, "lon": -72.4554678959503, "alt_km": 780.8403858917982, "timestamp": "2025-12-04T09:47:37.179902+00:00", "meta": {"OBJECT_NAME": "SENTINEL-2A", "OBJECT_ID": "2015-028A", "EPOCH": "2025-12-03T23:16:42.776256", "MEAN_MOTION": 14.30821981, "ECCENTRICITY": 0.00010407, "INCLINATION": 98.5702, "RA_OF_ASC_NODE": 50.6275, "ARG_OF_PERICENTER": 93.6595, "MEAN_ANOMALY": 266.4707, "EPHEMERIS_TYPE": 0, "CLASSIFICATION_TYPE": "U", "NORAD_CAT_ID": 40697, "ELEMENT_SET_NO": 999, "REV_AT_EPOCH": 54581, "BSTAR": 0.00013854836, "MEAN_MOTION_DOT": 3.2e-06, "MEAN_MOTION_DDOT": 0}, "tle": {"line1": "1 40697U 15028A   25337.96993954  .00000320  00000+0  13855-3 0  9995", "line2": "2 40697  98.5702  50.6275 0001040  93.6595 266.4707 14.30821981545818"}}, "geometry": {"type": "Point", "coordinates": [-72.4554678959503, 79.74763690798808]}}, {"type": "Feature", "properties": {"norad_id": 40701, "name": "GAOFEN-8", "group": "resource", "lat": 16.978724115162557, "lon": -21.49053527156489, "alt_km": 444.66489545217155, "timestamp": "2025-12-04T09:47:37.179912+00:00", "meta": {"OBJECT_NAME": "GAOFEN-8", "OBJECT_ID": "2015-030A", "EPOCH": "2025-12-03T23:43:12.663264", "MEAN_MOTION": 15.3808805, "ECCENTRICITY": 0.00112512, "INCLINATION": 97.6905, "RA_OF_ASC_NODE": 155.7051, "ARG_OF_PERICENTER": 168.8389, "MEAN_ANOMALY": 191.3106, "EPHEMERIS_TYPE": 0, "CLASSIFICATION_TYPE": "U", "NORAD_CAT_ID": 40701, "ELEMENT_SET_NO": 999, "REV_AT_EPOCH": 58136, "BSTAR": 0.00091097561, "MEAN_MOTION_DOT": 0.00034245, "MEAN_MOTION_DDOT": 0}, "tle": {"line1": "1 40701U 15030A   25337.98834101  .00034245  00000+0  91098-3 0  9992", "line2": "2 40701  97.6905 155.7051 0011251 168.8389 191.3106 15.38088050581369"}}, "geometry": {"type": "Point", "coordinates": [-21.49053527156489, 16.978724115162557]}}, {"type": "Feature", "properties": {"norad_id": 40718, "name": "CARBONITE 1 (CBNT-1)", "group": "resource", "lat": -39.398735211484755, "lon": 166.14872617952872, "alt_km": 630.7995647171911, "timestamp": "2025-12-04T09:47:37.179922+00:00", "meta": {"OBJECT_NAME": "CARBONITE 1 (CBNT-1)", "OBJECT_ID": "2015-032D", "EPOCH": "2025-12-04T00:15:18.406080", "MEAN_MOTION": 14.82678237, "ECCENTRICITY": 0.00138488, "INCLINATION": 97.6398, "RA_OF_ASC_NODE": 159.4393, "ARG_OF_PERICENTER": 210.9009, "MEAN_ANOMALY": 149.1392, "EPHEMERIS_TYPE": 0, "CLASSIFICATION_TYPE": "U", "NORAD_CAT_ID": 40718, "ELEMENT_SET_NO": 999, "REV_AT_EPOCH": 56041, "BSTAR": 0.00060113508, "MEAN_MOTION_DOT": 4.806e-05, "MEAN_MOTION_DDOT": 0}, "tle": {"line1": "1 40718U 15032D   25338.01062970  .00004806  00000+0  60114-3 0  9999", "line2": "2 40718  97.6398 159.4393 0013848 210.9009 149.1392 14.82678237560416"}}, "geometry": {"type": "Point", "coordinates": [166.14872617952872, -39.398735211484755]}}, {"type": "Feature", "properties": {"norad_id": 40878, "name": "YAOGAN-27", "group": "resource", "lat": -30.639538335363156, "lon": -25.5345652601222, "alt_km": 1200.1429183282244, "timestamp": "2025-12-04T09:47:37.179932+00:00", "meta": {"OBJECT_NAME": "YAOGAN-27", "OBJECT_ID": "2015-040A", "EPOCH": "2025-12-03T23:00:16.027776", "MEAN_MOTION": 13.16059684, "ECCENTRICITY": 0.00077334, "INCLINATION": 100.1004, "RA_OF_ASC_NODE": 327.976, "ARG_OF_PERICENTER": 308.3537, "MEAN_ANOMALY": 51.6881, "EPHEMERIS_TYPE": 0, "CLASSIFICATION_TYPE": "U", "NORAD_CAT_ID": 40878, "ELEMENT_SET_NO": 999, "REV_AT_EPOCH": 49198, "BSTAR": 6.5652519e-05, "MEAN_MOTION_DOT": -1.7e-07, "MEAN_MOTION_DDOT": 0}, "tle": {"line1": "1 40878U 15040A   25337.95851884 -.00000017  00000+0  65653-4 0  9992", "line2": "2 40878 100.1004 327.9760 0007733 308.3537  51.6881 13.16059684491981"}}, "geometry": {"type": "Point", "coordinates": [-25.5345652601222, -30.639538335363156]}}, {"type": "Feature", "properties": {"norad_id": 40894, "name": "GAOFEN-9 01", "group": "resource", "lat": -68.76497438794884, "lon": 177.47143113153578, "alt_km": 649.0202673084868, "timestamp": "2025-12-04T09:47:37.179943+00:00", "meta": {"OBJECT_NAME": "GAOFEN-9 01", "OBJECT_ID": "2015-047A", "EPOCH": "2025-12-04T00:34:11.453952", "MEAN_MOTION": 14.82388441, "ECCENTRICITY": 0.00289046, "INCLINATION": 97.6555, "RA_OF_ASC_NODE": 17.3555, "ARG_OF_PERICENTER": 61.7366, "MEAN_ANOMALY": 298.676, "EPHEMERIS_TYPE": 0, "CLASSIFICATION_TYPE": "U", "NORAD_CAT_ID": 40894, "ELEMENT_SET_NO": 999, "REV_AT_EPOCH": 55127, "BSTAR": 0.00028319899, "MEAN_MOTION_DOT": 2.233e-05, "MEAN_MOTION_DDOT": 0}, "tle": {"line1": "1 40894U 15047A   25338.02374368  .00002233  00000+0  28320-3 0  9993", "line2": "2 40894  97.6555  17.3555 0028904  61.7366 298.6760 14.82388441551273"}}, "geometry": {"type": "Point", "coordinates": [177.47143113153578, -68.76497438794884]}}, {"type": "Feature", "properties": {"norad_id": 41026, "name": "YAOGAN-28", "group": "resource", "lat": -48.39855543486656, "lon": -71.84105316928873, "alt_km": 498.19336642436065, "timestamp": "2025-12-04T09:47:37.179953+00:00", "meta": {"OBJECT_NAME": "YAOGAN-28", "OBJECT_ID": "2015-064A", "EPOCH": "2025-12-04T04:03:58.969728", "MEAN_MOTION": 15.24121304, "ECCENTRICITY": 0.001201, "INCLINATION": 97.28, "RA_OF_ASC_NODE": 116.2054, "ARG_OF_PERICENTER": 154.4362, "MEAN_ANOMALY": 205.7472, "EPHEMERIS_TYPE": 0, "CLASSIFICATION_TYPE": "U", "NORAD_CAT_ID": 41026, "ELEMENT_SET_NO": 999, "REV_AT_EPOCH": 56094, "BSTAR": 0.0007396, "MEAN_MOTION_DOT": 0.00017972, "MEAN_MOTION_DDOT": 0}, "tle": {"line1": "1 41026U 15064A   25338.16943252  .00017972  00000+0  73960-3 0  9995", "line2": "2 41026  97.2800 116.2054 0012010 154.4362 205.7472 15.24121304560943"}}, "geometry": {"type": "Point", "coordinates": [-71.84105316928873, -48.39855543486656]}}, {"type": "Feature", "properties": {"norad_id": 41038, "name": "YAOGAN-29", "group": "resource", "lat": 55.44945801383821, "lon": -166.62772558645858, "alt_km": 615.2692037493534, "timestamp": "2025-12-04T09:47:37.179963+00:00", "meta": {"OBJECT_NAME": "YAOGAN-29", "OBJECT_ID": "2015-069A", "EPOCH": "2025-12-03T23:31:16.097088", "MEAN_MOTION": 14.82866814, "ECCENTRICITY": 7.208e-05, "INCLINATION": 98.0228, "RA_OF_ASC_NODE": 1.1233, "ARG_OF_PERICENTER": 4.8914, "MEAN_ANOMALY": 355.2306, "EPHEMERIS_TYPE": 0, "CLASSIFICATION_TYPE": "U", "NORAD_CAT_ID": 41038, "ELEMENT_SET_NO": 999, "REV_AT_EPOCH": 54169, "BSTAR": 0.00010813084, "MEAN_MOTION_DOT": 8.22e-06, "MEAN_MOTION_DDOT": 0}, "tle": {"line1": "1 41038U 15069A   25337.98004742  .00000822  00000+0  10813-3 0  9998", "line2": "2 41038  98.0228   1.1233 0000720   4.8914 355.2306 14.82866814541699"}}, "geometry": {"type": "Point", "coordinates": [-166.62772558645858, 55.44945801383821]}}, {"type": "Feature", "properties": {"norad_id": 41167, "name": "KENT RIDGE 1", "group": "resource", "lat": 9.356589489455345, "lon": 54.92323002412736, "alt_km": 500.82709655049075, "timestamp": "2025-12-04T09:47:37.179973+00:00", "meta": {"OBJECT_NAME": "KENT RIDGE 1", "OBJECT_ID": "2015-077B", "EPOCH": "2025-12-04T01:18:41.430816", "MEAN_MOTION": 15.21528347, "ECCENTRICITY": 0.0008643, "INCLINATION": 14.9803, "RA_OF_ASC_NODE": 275.5817, "ARG_OF_PERICENTER": 7.7804, "MEAN_ANOMALY": 352.2651, "EPHEMERIS_TYPE": 0, "CLASSIFICATION_TYPE": "U", "NORAD_CAT_ID": 41167, "ELEMENT_SET_NO": 999, "REV_AT_EPOCH": 55131, "BSTAR": 0.00031346, "MEAN_MOTION_DOT": 8.044e-05, "MEAN_MOTION_DDOT": 0}, "tle": {"line1": "1 41167U 15077B   25338.05464619  .00008044  00000+0  31346-3 0  9990", "line2": "2 41167  14.9803 275.5817 0008643   7.7804 352.2651 15.21528347551315"}}, "geometry": {"type": "Point", "coordinates": [54.92323002412736, 9.356589489455345]}}, {"type": "Feature", "properties": {"norad_id": 41194, "name": "GAOFEN-4", "group": "resource", "lat": -0.13084854878504232, "lon": -33.91654599721463, "alt_km": 35797.836411749624, "timestamp": "2025-12-04T09:47:37.179986+00:00", "meta": {"OBJECT_NAME": "GAOFEN-4", "OBJECT_ID": "2015-083A", "EPOCH": "2025-12-03T20:03:59.764032", "MEAN_MOTION": 1.00273387, "ECCENTRICITY": 0.00037375, "INCLINATION": 0.146, "RA_OF_ASC_NODE": 80.7672, "ARG_OF_PERICENTER": 104.6053, "MEAN_ANOMALY": 294.2325, "EPHEMERIS_TYPE": 0, "CLASSIFICATION_TYPE": "U", "NORAD_CAT_ID": 41194, "ELEMENT_SET_NO": 999, "REV_AT_EPOCH": 3657, "BSTAR": 0, "MEAN_MOTION_DOT": -3.18e-06, "MEAN_MOTION_DDOT": 0}, "tle": {"line1": "1 41194U 15083A   25337.83610838 -.00000318  00000+0  00000+0 0  9994", "line2": "2 41194   0.1460  80.7672 0003737 104.6053 294.2325  1.00273387 36570"}}, "geometry": {"type": "Point", "coordinates": [-33.91654599721463, -0.13084854878504232]}}, {"type": "Feature", "properties": {"norad_id": 41240, "name": "JASON-3", "group": "resource", "lat": -30.924081714831754, "lon": 10.789913020296266, "alt_km": 1312.8999210481843, "timestamp": "2025-12-04T09:47:37.179997+00:00", "meta": {"OBJECT_NAME": "JASON-3", "OBJECT_ID": "2016-002A", "EPOCH": "2025-12-04T03:05:32.595936", "MEAN_MOTION": 12.87626078, "ECCENTRICITY": 0.0007138, "INCLINATION": 66.0392, "RA_OF_ASC_NODE": 175.9281, "ARG_OF_PERICENTER": 270.3407, "MEAN_ANOMALY": 89.6794, "EPHEMERIS_TYPE": 0, "CLASSIFICATION_TYPE": "U", "NORAD_CAT_ID": 41240, "ELEMENT_SET_NO": 999, "REV_AT_EPOCH": 46213, "BSTAR": 0.00018757, "MEAN_MOTION_DOT": -1.5e-07, "MEAN_MOTION_DDOT": 0}, "tle": {"line1": "1 41240U 16002A   25338.12884949 -.00000015  00000+0  18757-3 0  9993", "line2": "2 41240  66.0392 175.9281 0007138 270.3407  89.6794 12.87626078462130"}}, "geometry": {"type": "Point", "coordinates": [10.789913020296266, -30.924081714831754]}}]}